{"type":"FeatureCollection","features":[{"type":"Feature","geometry":{"type":"Point","coordinates":[144.9757699,-37.4213067]},"properties":{"IncidentNumber":"S260650065","Status":"Open","Vehicle":"Kilmore Rescue","IncidentType":"BUILDING DAMAGE","Address":"37  WYATT WAY WALLAN","IncidentTime":"2026-06-01T07:41:53Z","EnRouteTime":"2026-06-01T23:24:04Z","OnSceneTime":"2026-06-02T00:07:29Z","ClearTime":"2026-06-02T00:08:28Z"}},{"type":"Feature","geometry":{"type":"Point","coordinates":[144.9626506,-37.2764904]},"properties":{"IncidentNumber":"F260535689","Status":"Clear","Vehicle":"Kilmore Support 1","IncidentType":"INDUST ACCDNT - TRAPPED - HEAD STUCK IN WIRE ","Address":"24 KELLYS LANE KILMORE","IncidentTime":"2026-05-29T06:54:41Z","EnRouteTime":"","OnSceneTime":"","ClearTime":"2026-06-04T04:19:49Z"}},{"type":"Feature","geometry":{"type":"Point","coordinates":[145.0069129,-37.4100726]},"properties":{"IncidentNumber":"F260533945","Status":"Clear","Vehicle":"Kilmore Support 1","IncidentType":"ROAD ACCIDENT - TRAPPED","Address":"HUME FWY WALLAN","IncidentTime":"2026-05-27T16:08:19Z","EnRouteTime":"2026-06-04T04:44:42Z","OnSceneTime":"2026-06-04T04:42:24Z","ClearTime":"2026-06-04T04:46:25Z"}},{"type":"Feature","geometry":{"type":"Point","coordinates":[144.9443701,-37.4804498]},"properties":{"IncidentNumber":"S260551315","Status":"Open","Vehicle":"UnAssigned","IncidentType":"ASSIST POLICE","Address":"163 MANDALAY CCT BEVERIDGE","IncidentTime":"2026-05-23T16:54:02Z","EnRouteTime":"","OnSceneTime":"","ClearTime":""}}]}